[{"OBJECT_NAME":"STARLINK-3697","OBJECT_ID":"2022-025G","EPOCH":"2026-03-09T04:53:08.115360","MEAN_MOTION":15.29354232,"ECCENTRICITY":0.00013821,"INCLINATION":53.157,"RA_OF_ASC_NODE":26.3329,"ARG_OF_PERICENTER":87.4855,"MEAN_ANOMALY":272.6303,"EPHEMERIS_TYPE":0,"CLASSIFICATION_TYPE":"U","NORAD_CAT_ID":51962,"ELEMENT_SET_NO":999,"REV_AT_EPOCH":22094,"BSTAR":1.860014e-6,"MEAN_MOTION_DOT":-3.02e-6,"MEAN_MOTION_DDOT":0},{"OBJECT_NAME":"NUSAT-50 (NANCY ROMAN)","OBJECT_ID":"2024-149AB","EPOCH":"2026-03-09T19:15:16.765632","MEAN_MOTION":15.29713355,"ECCENTRICITY":0.00025229,"INCLINATION":97.3817,"RA_OF_ASC_NODE":150.7693,"ARG_OF_PERICENTER":238.0469,"MEAN_ANOMALY":122.0527,"EPHEMERIS_TYPE":0,"CLASSIFICATION_TYPE":"U","NORAD_CAT_ID":60493,"ELEMENT_SET_NO":999,"REV_AT_EPOCH":8693,"BSTAR":0.0004225155,"MEAN_MOTION_DOT":0.00012094,"MEAN_MOTION_DDOT":0}]
